OSCAR 7 (AO-7)          
1 07530U 74089B   26188.51478832 -.00000046  00000+0  49488-5 0  9994
2 07530 101.9901 201.9731 0012664  92.5590  74.3678 12.53698425363068
PHASE 3B (AO-10)        
1 14129U 83058B   26187.30639496  .00000240  00000+0  00000+0 0  9999
2 14129  25.9287 216.4111 6004451 120.9204 311.3694  2.05868973295883
UOSAT 2 (UO-11)         
1 14781U 84021B   26188.35711644  .00001031  00000+0  11037-3 0  9991
2 14781  97.8070 153.7082 0009095 112.8579 247.3601 14.90835514260131
LUSAT (LO-19)           
1 20442U 90005G   26188.48462288  .00000077  00000+0  44156-4 0  9990
2 20442  98.8845 210.8490 0012233 142.4411 217.7630 14.34129180905304
EYESAT A (AO-27)        
1 22825U 93061C   26188.13790327  .00000072  00000+0  44304-4 0  9992
2 22825  98.6871 255.5434 0009159  47.8200 312.3759 14.30947627709855
ITAMSAT (IO-26)         
1 22826U 93061D   26187.69194509  .00000089  00000+0  50471-4 0  9993
2 22826  98.6820 255.0170 0009437  33.2338 326.9435 14.31375033710101
RADIO ROSTO (RS15)      
1 23439U 94085A   26188.42578287 -.00000037  00000+0  16096-3 0  9990
2 23439  64.8166 270.4858 0156634   0.1409 359.9534 11.27583445298183
JAS-2 (FO-29)           
1 24278U 96046B   26187.82950257 -.00000018  00000+0  15885-4 0  9990
2 24278  98.5225  34.0093 0350675  45.6079 317.3214 13.53275038475826
TECHSAT 1B (GO-32)      
1 25397U 98043D   26187.94313305  .00000041  00000+0  37960-4 0  9995
2 25397  99.0077 181.2008 0001942 128.2186 231.9167 14.24432204454147
ISS (ZARYA)             
1 25544U 98067A   26188.50835634  .00005806  00000+0  11369-3 0  9990
2 25544  51.6304 199.5144 0006687 267.6545  92.3678 15.48933372574901
PCSAT (NO-44)           
1 26931U 01043C   26187.71597949  .00000106  00000+0  70598-4 0  9993
2 26931  67.0487 193.7609 0005988 265.9645  94.0772 14.31962724293245
SAUDISAT 1C (SO-50)     
1 27607U 02058C   26188.11499616  .00000749  00000+0  10582-3 0  9997
2 27607  64.5520  67.3282 0074751 258.7570 100.5128 14.83088031267415
CUTE-1 (CO-55)          
1 27844U 03031E   26188.47926414  .00000234  00000+0  12008-3 0  9996
2 27844  98.6738 196.7829 0010633 122.6531 237.5676 14.24348198194568
CUBESAT XI-IV (CO-57)   
1 27848U 03031J   26188.47791579  .00000195  00000+0  10456-3 0  9993
2 27848  98.6771 196.4779 0010210 139.6848 220.5090 14.23631593194262
MOZHAETS 4 (RS22)       
1 27939U 03042A   26188.65717288  .00000963  00000+0  15634-3 0  9997
2 27939  98.3479  13.5949 0010650 197.7120 250.3663 14.73506719218562
CUBESAT XI-V            
1 28895U 05043F   26187.90288029  .00001301  00000+0  21205-3 0  9993
2 28895  98.3006 343.9413 0014933 139.5987 220.6332 14.72686848104657
CUTE-1.7+APD II (CO-65) 
1 32785U 08021C   26188.53243106  .00003026  00000+0  19212-3 0  9993
2 32785  97.8288 170.3776 0007549 330.9800  29.1008 15.09654331988268
SEEDS II (CO-66)        
1 32791U 08021J   26187.97759589  .00013488  00000+0  41928-3 0  9996
2 32791  97.7526 186.8299 0002094 175.3299 184.7963 15.33467667990323
YUBILEINY (RS30)        
1 32953U 08025A   26188.62036950 -.00000055  00000+0 -46539-3 0  9994
2 32953  82.5058 342.7282 0018503 266.6150  93.2813 12.43179957822234
KKS-1 (KISEKI)          
1 33499U 09002H   26188.49612233  .00001151  00000+0  14779-3 0  9992
2 33499  98.1180 111.2602 0006827 216.2577 143.8174 14.83176447939209
SWISSCUBE               
1 35932U 09051B   26188.21471724  .00000862  00000+0  17976-3 0  9998
2 35932  98.4018  96.4508 0007414 140.7711 219.4029 14.62520493892083
BEESAT-1                
1 35933U 09051C   26187.68699793  .00000825  00000+0  17521-3 0  9992
2 35933  98.3946  95.5083 0005593 152.8547 207.2947 14.61752776892037
ITUPSAT1                
1 35935U 09051E   26187.96902508  .00000669  00000+0  14806-3 0  9995
2 35935  98.4029  94.9654 0007491 167.2440 192.8951 14.60470414891623
XIWANG-1 (HOPE-1)       
1 36122U 09072B   26188.61164590  .00000298  00000+0  89638-3 0  9994
2 36122 100.4036 142.1183 0007316 181.9320 178.1766 13.16440672795697
O/OREOS (USA 219)       
1 37224U 10062C   26188.01862282  .00001776  00000+0  17289-3 0  9991
2 37224  71.9708  35.4141 0013471  21.2567 338.9160 14.93830285119609
JUGNU                   
1 37839U 11058B   26188.05385067  .00000388  00000+0  62949-4 0  9996
2 37839  19.9587 187.7288 0018355 296.0601 101.0732 14.13781645761848
SRMSAT                  
1 37841U 11058D   26188.51395409  .00000364  00000+0  53720-4 0  9992
2 37841  19.9725 296.4406 0011878  67.5382  21.1361 14.11579854760692
STRAND-1                
1 39090U 13009E   26188.45511461  .00000234  00000+0  93038-4 0  9991
2 39090  98.3931   8.1913 0008963 162.7350 197.4144 14.37175624699978
ZACUBE-1 (TSHEPISOSAT)  
1 39417U 13066B   26188.46989733  .00001831  00000+0  14444-3 0  9996
2 39417  97.8022 150.9081 0043509 179.9834 180.1399 15.01305441683776
GOMX-1                  
1 39430U 13066Q   26188.61334711  .00001470  00000+0  22575-3 0  9991
2 39430  97.6475  27.7867 0128952  12.5472 347.8894 14.69530704672911
